STARLINK-11674 [DTC]    
1 64327U 25124L   25176.93310503  .00572343  00000+0  22189-2 0  9998
2 64327  43.0025 137.7285 0001708 237.2849 122.7859 15.84919857  2443
STARLINK-11707 [DTC]    
1 64328U 25124M   25176.93263787  .00185584  00000+0  75732-3 0  9990
2 64328  43.0026 137.7254 0002432 263.0071  97.0525 15.84825451  2440
STARLINK-11734 [DTC]    
1 64329U 25124N   25176.93212337  .00192177  00000+0  78264-3 0  9995
2 64329  43.0024 137.7197 0001749 280.2334  79.8342 15.84850949  2443
STARLINK-34252          
1 64330U 25124P   25177.00002315 -.01552815  00000+0 -15287-1 0  9995
2 64330  43.0010 137.7728 0001132 279.8817 279.8934 15.67988050  3565
STARLINK-34050          
1 64331U 25124Q   25177.00002315 -.01554934  00000+0 -15311-1 0  9998
2 64331  43.0009 137.7681 0001024 275.9531 285.7412 15.67988145  3519
STARLINK-33782          
1 64332U 25124R   25177.00002315 -.01549326  00000+0 -15253-1 0  9993
2 64332  43.0008 137.7628 0000966 279.2944 284.3225 15.67982429  3470
STARLINK-34207          
1 64333U 25124S   25177.00002315 -.01549896  00000+0 -15257-1 0  9990
2 64333  43.0010 137.7581 0000958 282.8515 282.6758 15.67986157  3460
STARLINK-34260          
1 64334U 25124T   25177.00002315 -.01550774  00000+0 -15267-1 0  9999
2 64334  43.0009 137.7532 0000986 280.6538 286.7931 15.67985407  3563
STARLINK-33855          
1 64335U 25124U   25177.00002315 -.01551817  00000+0 -15279-1 0  9992
2 64335  43.0010 137.7485 0000980 280.2025 289.1636 15.67984713  3461
STARLINK-34223          
1 64336U 25124V   25177.00002315 -.01550649  00000+0 -15267-1 0  9992
2 64336  43.0011 137.7291 0000854 279.2873 297.7467 15.67984441  3563
STARLINK-34216          
1 64337U 25124W   25177.00002315 -.01549287  00000+0 -15251-1 0  9992
2 64337  43.0011 137.7389 0001036 275.9653 297.2325 15.67984284  3567
STARLINK-34218          
1 64338U 25124X   25177.00002315 -.01521452  00000+0 -14961-1 0  9994
2 64338  43.0012 137.7439 0001077 276.3806 294.9218 15.67956999  3674
STARLINK-34017          
1 64339U 25124Y   25177.00002315 -.01550330  00000+0 -15262-1 0  9997
2 64339  43.0009 137.7333 0000972 280.0059 295.1086 15.67985680  3685
QPS-SAR-11 (YAMATSUMI-I)
1 64340U 25125A   25176.94655126  .00002616  00000+0  23793-3 0  9992
2 64340  42.0104 349.2722 0007665 356.5178   3.5592 14.97161730  2148
ELECTRON KICK STAGE R/B 
1 64341U 25125B   25176.74491687  .00121613  10649-4  91714-3 0  9993
2 64341  42.0102 344.1634 0206305   7.6826 352.7101 15.48724839  2180
ELECTRON R/B            
1 64342U 25125C   25176.94686926  .00391726  50685-4  95987-3 0  9992
2 64342  42.0226 341.3101 0222194 337.0947  22.0113 15.64826620  2228
STARLINK-33977          
1 64344U 25126A   25176.86774942 -.00347019  00000+0 -18940-2 0  9994
2 64344  69.9966 329.1935 0003687 278.4076  81.6707 15.80503143  3246
STARLINK-34426          
1 64345U 25126B   25176.86743159 -.00331713  00000+0 -18048-2 0  9994
2 64345  69.9966 329.1926 0003670 283.0698  77.0094 15.80533227  2031
STARLINK-34437          
1 64346U 25126C   25176.86696697 -.00325978  00000+0 -17733-2 0  9995
2 64346  69.9963 329.1908 0003735 285.4647  74.6142 15.80521866  2034
STARLINK-34407          
1 64347U 25126D   25176.86653711 -.00336717  00000+0 -18363-2 0  9999
2 64347  69.9966 329.1891 0003533 284.3317  75.7492 15.80496144  2037
STARLINK-34274          
1 64348U 25126E   25176.86604066 -.00342014  00000+0 -18682-2 0  9990
2 64348  69.9966 329.1870 0003636 284.7245  75.3553 15.80473363  2035
STARLINK-34301          
1 64349U 25126F   25176.86556068 -.00353886  00000+0 -19386-2 0  9990
2 64349  69.9963 329.1849 0003712 281.8545  78.2239 15.80439887  2031
STARLINK-34425          
1 64350U 25126G   25176.86510910 -.00354773  00000+0 -19458-2 0  9994
2 64350  69.9964 329.1833 0003528 290.6842  69.3981 15.80417470  2039
STARLINK-34389          
1 64351U 25126H   25176.86478401 -.00089133  00000+0 -46940-3 0  9995
2 64351  69.9962 329.1818 0004265 292.3771  67.6978 15.80595935  2030
STARLINK-34385          
1 64352U 25126J   25176.86336577 -.00141165  00000+0 -75246-3 0  9998
2 64352  69.9965 329.1763 0004290 293.3907  66.6842 15.80483364  2034
STARLINK-34431          
1 64353U 25126K   25176.86429572 -.00357663  00000+0 -19626-2 0  9998
2 64353  69.9965 329.1803 0003631 281.4530  78.6263 15.80413255  2030
STARLINK-34473          
1 64354U 25126L   25176.86383675 -.00375303  00000+0 -20677-2 0  9991
2 64354  69.9962 329.1784 0003579 289.1037  70.9777 15.80370038  2030
STARLINK-34270          
1 64355U 25126M   25176.86294832 -.00427727  00000+0 -23779-2 0  9992
2 64355  69.9961 329.1740 0003339 287.7074  72.3763 15.80306050  3249
STARLINK-34397          
1 64356U 25126N   25176.86248139 -.00411496  00000+0 -22859-2 0  9996
2 64356  69.9964 329.1725 0003698 282.8756  77.2031 15.80279175  2032
STARLINK-34454          
1 64357U 25126P   25176.86207037 -.00423673  00000+0 -23530-2 0  9996
2 64357  69.9967 329.1715 0005570 265.6053  94.4512 15.80294425  2035
STARLINK-34436          
1 64358U 25126Q   25176.86156623 -.00413857  00000+0 -23067-2 0  9999
2 64358  69.9961 329.1690 0003565 281.3489  78.7311 15.80213393  2039
STARLINK-34291          
1 64359U 25126R   25176.86106010 -.00445608  00000+0 -24999-2 0  9999
2 64359  69.9963 329.1668 0003529 286.6049  73.4765 15.80150642  2039
STARLINK-34458          
1 64360U 25126S   25176.86065539 -.00433521  00000+0 -24276-2 0  9990
2 64360  69.9963 329.1656 0003927 270.8062  89.2689 15.80157119  2036
STARLINK-34243          
1 64361U 25126T   25176.85978396 -.00459363  00000+0 -25889-2 0  9997
2 64361  69.9962 329.1613 0003653 284.1146  75.9649 15.80083681  2036
STARLINK-34335          
1 64362U 25126U   25176.86017101 -.00446048  00000+0 -25093-2 0  9990
2 64362  69.9963 329.1633 0003344 279.4844  80.5978 15.80092968  2034
STARLINK-34408          
1 64363U 25126V   25176.85934846 -.00457329  00000+0 -25804-2 0  9998
2 64363  69.9961 329.1599 0003535 278.9805  81.0996 15.80054580  2031
STARLINK-34476          
1 64364U 25126W   25176.85888491 -.00453440  00000+0 -25613-2 0  9991
2 64364  69.9960 329.1583 0003343 277.4242  82.6579 15.80022306  2035
STARLINK-34479          
1 64365U 25126X   25176.85842248 -.00465248  00000+0 -26358-2 0  9998
2 64365  69.9963 329.1564 0003902 276.2840  83.7917 15.79981642  2033
STARLINK-34484          
1 64366U 25126Y   25176.85760376 -.00458748  00000+0 -26022-2 0  9995
2 64366  69.9961 329.1529 0003653 281.9579  78.1213 15.79940667  3241
STARLINK-34483          
1 64367U 25126Z   25176.85663709 -.00462804  00000+0 -26392-2 0  9996
2 64367  69.9962 329.1494 0003717 286.6169  73.4623 15.79833746  2030
STARLINK-34457          
1 64368U 25126AA  25176.85803534 -.00212078  00000+0 -11616-2 0  9998
2 64368  69.9961 329.1553 0004179 290.6733  69.4020 15.80078254  2034
STARLINK-34444          
1 64369U 25126AB  25176.85711095 -.00058750  00000+0 -31452-3 0  9995
2 64369  69.9963 329.1519 0003278 273.0694  87.0132 15.80135689  2035
ZHANGHENG 1-02 (CSES-2) 
1 64393U 25128A   25176.93965796  .00004642  00000+0  20130-3 0  9992
2 64393  97.3171 307.9402 0010625 225.3124 134.7248 15.22793808  1772
COSMOS 2589             
1 64467U 25131A   25173.77953897 -.00000322  00000+0  00000+0 0  9998
2 64467   1.0930 280.4838 3665381 173.7648 194.9192  1.00620171    39
BREEZE-M R/B            
1 64468U 25131B   25173.80781051 -.00000145  00000+0  00000+0 0  9997
2 64468   1.4224 285.7735 3876101 171.5822 241.3112  1.04440359    39
CZ-3B R/B               
1 64470U 25132A   25171.34247384  .00000027  00000+0  00000+0 0  9992
2 64470  26.7023  94.2081 4807309 178.5577 286.0213  6.06457804    00
CHINASAT 9C             
1 64471U 25132B   25174.00107397  .00034859  10707-5  27458-2 0  9998
2 64471  27.6596  94.1232 7342523 181.2255 175.0847  2.23177309    62
AXIOM-4 (AX-4)          
1 64593U 25136A   25176.53681263 -.00274185  11448-4 -25400-3 0  9994
2 64593  51.6473 265.7377 0074392 212.9154 253.7727 16.05386249    42
